[{"OBJECT_NAME":"STARLINK-4198","OBJECT_ID":"2022-062AE","EPOCH":"2026-03-09T07:04:23.393280","MEAN_MOTION":15.08835599,"ECCENTRICITY":0.00017715,"INCLINATION":53.218,"RA_OF_ASC_NODE":25.9201,"ARG_OF_PERICENTER":92.0175,"MEAN_ANOMALY":268.102,"EPHEMERIS_TYPE":0,"CLASSIFICATION_TYPE":"U","NORAD_CAT_ID":52858,"ELEMENT_SET_NO":999,"REV_AT_EPOCH":20586,"BSTAR":-8.5386398e-5,"MEAN_MOTION_DOT":-1.647e-5,"MEAN_MOTION_DDOT":0},{"OBJECT_NAME":"THORAD DELTA 1 DEB","OBJECT_ID":"1974-089BJ","EPOCH":"2026-03-09T17:26:50.938944","MEAN_MOTION":14.89612235,"ECCENTRICITY":0.00930761,"INCLINATION":102.9252,"RA_OF_ASC_NODE":157.5149,"ARG_OF_PERICENTER":255.4838,"MEAN_ANOMALY":103.6021,"EPHEMERIS_TYPE":0,"CLASSIFICATION_TYPE":"U","NORAD_CAT_ID":8301,"ELEMENT_SET_NO":999,"REV_AT_EPOCH":53411,"BSTAR":0.014617981,"MEAN_MOTION_DOT":0.00154551,"MEAN_MOTION_DDOT":0}]
